*******************************************************************************
JPL/HORIZONS               2956 Yeomans (1982 HN1)         2023-Sep-04 11:20:54
Rec #:    2956 (+COV) Soln.date: 2023-Aug-23_04:22:13   # obs: 4802 (1974-2023)
 
IAU76/J2000 helio. ecliptic osc. elements (au, days, deg., period=Julian yrs):
 
  EPOCH=  2457826.5 ! 2017-Mar-14.00 (TDB)         Residual RMS= .23894
   EC= .09052405312338274  QR= 2.51491989480517    TP= 2458606.8368381732
   OM= 112.2132736364601   W=  124.2794755224449   IN= 2.86859679153841
   A= 2.765240689918271    MA= 192.7420477913372   ADIST= 3.015561485031372
   PER= 4.59841            N= .21434071            ANGMOM= .028487946
   DAN= 2.88993            DDN= 2.60953            L= 236.5261911
   B= 2.3700075            MOID= 1.50494003        TP= 2019-May-03.3368381732
 
Asteroid physical parameters (km, seconds, rotational period in hours):
   GM= n.a.                RAD= 4.675              ROTPER= 3.4
   H= 12.37                G= .150                 B-V= n.a.
                           ALBEDO= .292            STYP= Sr

ASTEROID comments: 
1: soln ref.= JPL#68, OCC=0
2: source=ORB
*******************************************************************************


*******************************************************************************
Ephemeris / API_USER Mon Sep  4 11:20:54 2023 Pasadena, USA      / Horizons
*******************************************************************************
Target body name: 2956 Yeomans (1982 HN1)         {source: JPL#68}
Center body name: Solar System Barycenter (0)     {source: DE441}
Center-site name: BODY CENTER
*******************************************************************************
Start time      : A.D. 2023-Aug-12 00:00:00.0000 TDB
Stop  time      : A.D. 2023-Aug-13 00:00:00.0000 TDB
Step-size       : 2880 minutes
*******************************************************************************
Center geodetic : 0.0, 0.0, 0.0                   {E-lon(deg),Lat(deg),Alt(km)}
Center cylindric: 0.0, 0.0, 0.0                   {E-lon(deg),Dxy(km),Dz(km)}
Center radii    : (undefined)
Small perturbers: Yes                             {source: SB441-N16}
Output units    : KM-S
Calendar mode   : Mixed Julian/Gregorian
Output type     : GEOMETRIC cartesian states
Output format   : 2 (position and velocity)
Reference frame : Ecliptic of J2000.0
*******************************************************************************
Initial IAU76/J2000 heliocentric ecliptic osculating elements (au, days, deg.):
  EPOCH=  2457826.5 ! 2017-Mar-14.00 (TDB)         Residual RMS= .23894        
   EC= .09052405312338274  QR= 2.51491989480517    TP= 2458606.8368381732      
   OM= 112.2132736364601   W=  124.2794755224449   IN= 2.86859679153841        
  Equivalent ICRF heliocentric cartesian coordinates (au, au/d):
   X= 1.165282145567219E+00  Y= 2.587166818394548E+00  Z= 1.005486721570368E+00
  VX=-8.781987182846177E-03 VY= 3.087973982976632E-03 VZ= 1.710288203035648E-03
Asteroid physical parameters (km, seconds, rotational period in hours):        
   GM= n.a.                RAD= 4.675              ROTPER= 3.4                 
   H= 12.37                G= .150                 B-V= n.a.                   
                           ALBEDO= .292            STYP= Sr                    
*******************************************************************************
JDTDB
   X     Y     Z
   VX    VY    VZ
*******************************************************************************
$$SOE
2460168.500000000 = A.D. 2023-Aug-12 00:00:00.0000 TDB 
 X =-3.406393228083383E+08 Y =-1.700382490656719E+08 Z = 1.899782477020536E+07
 VX= 9.391559111833542E+00 VY=-1.703629772446080E+01 VZ=-1.133973610118071E-01
$$EOE
*******************************************************************************
 
TIME

  Barycentric Dynamical Time ("TDB" or T_eph) output was requested. This
continuous coordinate time is equivalent to the relativistic proper time
of a clock at rest in a reference frame co-moving with the solar system
barycenter but outside the system's gravity well. It is the independent
variable in the solar system relativistic equations of motion.

  TDB runs at a uniform rate of one SI second per second and is independent
of irregularities in Earth's rotation.
 
CALENDAR SYSTEM

  Mixed calendar mode was active such that calendar dates after AD 1582-Oct-15
(if any) are in the modern Gregorian system. Dates prior to 1582-Oct-5 (if any)
are in the Julian calendar system, which is automatically extended for dates
prior to its adoption on 45-Jan-1 BC.  The Julian calendar is useful for
matching historical dates. The Gregorian calendar more accurately corresponds
to the Earth's orbital motion and seasons. A "Gregorian-only" calendar mode is
available if such physical events are the primary interest.

REFERENCE FRAME AND COORDINATES

  Ecliptic at the standard reference epoch

    Reference epoch: J2000.0
    X-Y plane: adopted Earth orbital plane at the reference epoch
               Note: IAU76 obliquity of 84381.448 arcseconds wrt ICRF X-Y plane
    X-axis   : ICRF
    Z-axis   : perpendicular to the X-Y plane in the directional (+ or -) sense
               of Earth's north pole at the reference epoch.

  Symbol meaning:

    JDTDB    Julian Day Number, Barycentric Dynamical Time
      X      X-component of position vector (km)
      Y      Y-component of position vector (km)
      Z      Z-component of position vector (km)
      VX     X-component of velocity vector (km/sec)                           
      VY     Y-component of velocity vector (km/sec)                           
      VZ     Z-component of velocity vector (km/sec)                           

ABERRATIONS AND CORRECTIONS

 Geometric state vectors have NO corrections or aberrations applied.

Computations by ...

    Solar System Dynamics Group, Horizons On-Line Ephemeris System
    4800 Oak Grove Drive, Jet Propulsion Laboratory
    Pasadena, CA  91109   USA

    General site: https://ssd.jpl.nasa.gov/
    Mailing list: https://ssd.jpl.nasa.gov/email_list.html
    System news : https://ssd.jpl.nasa.gov/horizons/news.html
    User Guide  : https://ssd.jpl.nasa.gov/horizons/manual.html
    Connect     : browser        https://ssd.jpl.nasa.gov/horizons/app.html#/x
                  API            https://ssd-api.jpl.nasa.gov/doc/horizons.html
                  command-line   telnet ssd.jpl.nasa.gov 6775
                  e-mail/batch   https://ssd.jpl.nasa.gov/ftp/ssd/hrzn_batch.txt
                  scripts        https://ssd.jpl.nasa.gov/ftp/ssd/SCRIPTS
    Author      : Jon.D.Giorgini@jpl.nasa.gov
*******************************************************************************
